NORAD_CAT_ID,OBJECT_NAME,OBJECT_TYPE,EPOCH,MEAN_MOTION,ECCENTRICITY,INCLINATION,RA_OF_ASC_NODE,ARG_OF_PERICENTER,MEAN_ANOMALY,BSTAR,MEAN_MOTION_DOT,MEAN_MOTION_DDOT,TLE_LINE0,TLE_LINE1,TLE_LINE2,SEMIMAJOR_AXIS,PERIOD,APOGEE,PERIGEE,DECAYED
55669.0,STARLINK-5459,PAYLOAD,2023-03-16 22:19:49,15.69918774,0.0003201,70.0011,73.56,249.9371,110.148,-2.3389e-05,-3.023e-05,0.0,0 STARLINK-5459,1 55669U 23021AT  23075.93043928 -.00003023  00000-0 -23389-4 0  9993,2 55669  70.0011  73.5600 0003201 249.9371 110.1480 15.69918774  4808,6737.266,91.724,361.288,356.975,0.0
55669.0,STARLINK-5459,PAYLOAD,2023-03-17 02:55:04,15.69933463,0.0003,70.001,73.0229,244.563,115.5256,7.6342e-07,-1.21e-06,0.0,0 STARLINK-5459,1 55669U 23021AT  23076.12158219 -.00000121  00000-0  76342-6 0  9999,2 55669  70.0010  73.0229 0003000 244.5630 115.5256 15.69933463  4830,6737.224,91.724,361.111,357.068,0.0
55669.0,STARLINK-5459,PAYLOAD,2023-03-17 12:05:35,15.69928857,0.0003435,69.9993,71.9466,258.4823,101.5987,2.3738e-05,2.643e-05,0.0,0 STARLINK-5459,1 55669U 23021AT  23076.50388512  .00002643  00000-0  23738-4 0  9991,2 55669  69.9993  71.9466 0003435 258.4823 101.5987 15.69928857  4890,6737.238,91.724,361.417,356.788,0.0
55669.0,STARLINK-5459,PAYLOAD,2023-03-17 16:40:51,15.69917603,0.000343,69.9998,71.4094,261.1264,98.9544,2.7756e-06,1.21e-06,0.0,0 STARLINK-5459,1 55669U 23021AT  23076.69504061  .00000121  00000-0  27756-5 0  9994,2 55669  69.9998  71.4094 0003430 261.1264  98.9544 15.69917603  4921,6737.27,91.725,361.446,356.824,0.0
55669.0,STARLINK-5459,PAYLOAD,2023-03-18 11:01:52,15.69927788,0.0003325,69.9997,69.2607,258.9455,101.1367,5.6749e-06,4.7e-06,0.0,0 STARLINK-5459,1 55669U 23021AT  23077.45963732  .00000470  00000-0  56749-5 0  9994,2 55669  69.9997  69.2607 0003325 258.9455 101.1367 15.69927788  5043,6737.241,91.724,361.346,356.865,0.0
55669.0,STARLINK-5459,PAYLOAD,2023-03-18 21:44:08,15.69931874,0.0003374,69.9992,68.0058,265.4681,94.6129,-7.5596e-06,-1.122e-05,0.0,0 STARLINK-5459,1 55669U 23021AT  23077.90565305 -.00001122  00000-0 -75596-5 0  9996,2 55669  69.9992  68.0058 0003374 265.4681  94.6129 15.69931874  5428,6737.229,91.724,361.367,356.821,0.0
55669.0,STARLINK-5459,PAYLOAD,2023-03-19 08:26:24,15.69934709,0.0003232,69.9986,66.7518,254.784,105.2998,1.0123e-05,1.005e-05,0.0,0 STARLINK-5459,1 55669U 23021AT  23078.35166699  .00001005  00000-0  10123-4 0  9991,2 55669  69.9986  66.7518 0003232 254.7840 105.2998 15.69934709  5498,6737.221,91.724,361.263,356.908,0.0
55669.0,STARLINK-5459,PAYLOAD,2023-03-19 16:05:10,15.69922005,0.0003441,69.9978,65.8569,265.4731,94.6072,4.5839e-06,3.38e-06,0.0,0 STARLINK-5459,1 55669U 23021AT  23078.67025874  .00000338  00000-0  45839-5 0  9996,2 55669  69.9978  65.8569 0003441 265.4731  94.6072 15.69922005  5237,6737.257,91.724,361.44,356.804,0.0
55669.0,STARLINK-5459,PAYLOAD,2023-03-19 22:12:11,15.69919453,0.0003361,69.9994,65.1401,266.4249,93.6563,1.3614e-05,1.424e-05,0.0,0 STARLINK-5459,1 55669U 23021AT  23078.92512741  .00001424  00000-0  13614-4 0  9990,2 55669  69.9994  65.1401 0003361 266.4249  93.6563 15.69919453  5584,6737.264,91.724,361.394,356.865,0.0
55669.0,STARLINK-5459,PAYLOAD,2023-03-20 05:50:55,15.69934732,0.0003372,69.9992,64.2448,264.6187,95.4624,1.4298e-05,1.507e-05,0.0,0 STARLINK-5459,1 55669U 23021AT  23079.24370062  .00001507  00000-0  14298-4 0  9995,2 55669  69.9992  64.2448 0003372 264.6187  95.4624 15.69934732  5323,6737.221,91.724,361.358,356.814,0.0
55669.0,STARLINK-5459,PAYLOAD,2023-03-20 10:26:11,15.69926465,0.0003117,69.9987,63.7062,262.0965,97.9877,-2.6046e-06,-5.26e-06,0.0,0 STARLINK-5459,1 55669U 23021AT  23079.43485756 -.00000526  00000-0 -26046-5 0  9990,2 55669  69.9987  63.7062 0003117 262.0965  97.9877 15.69926465  5350,6737.244,91.724,361.209,357.009,0.0
55669.0,STARLINK-5459,PAYLOAD,2023-03-20 16:33:12,15.69918389,0.000313,69.999,62.9907,266.1387,93.9451,5.0626e-06,3.96e-06,0.0,0 STARLINK-5459,1 55669U 23021AT  23079.68972985  .00000396  00000-0  50626-5 0  9996,2 55669  69.9990  62.9907 0003130 266.1387  93.9451 15.69918389  5395,6737.267,91.725,361.241,357.024,0.0
55669.0,STARLINK-5459,PAYLOAD,2023-03-21 07:50:42,15.69934893,0.0003507,69.9992,61.1989,258.5246,101.5556,1.2725e-05,1.318e-05,0.0,0 STARLINK-5459,1 55669U 23021AT  23080.32688257  .00001318  00000-0  12725-4 0  9997,2 55669  69.9992  61.1989 0003507 258.5246 101.5556 15.69934893  5496,6737.22,91.724,361.448,356.723,0.0
55669.0,STARLINK-5459,PAYLOAD,2023-03-21 10:54:14,15.6990889,0.0003118,69.9986,60.8411,268.3355,91.7483,-1.5396e-05,-2.062e-05,0.0,0 STARLINK-5459,1 55669U 23021AT  23080.45433848 -.00002062  00000-0 -15396-4 0  9991,2 55669  69.9986  60.8411 0003118 268.3355  91.7483 15.69908890  5513,6737.295,91.725,361.26,357.059,0.0
55669.0,STARLINK-5459,PAYLOAD,2023-03-22 05:15:14,15.69924783,0.0002977,69.9994,58.6923,260.9842,99.1016,3.2187e-05,3.659e-05,0.0,0 STARLINK-5459,1 55669U 23021AT  23081.21892324  .00003659  00000-0  32187-4 0  9992,2 55669  69.9994  58.6923 0002977 260.9842  99.1016 15.69924783  5632,6737.249,91.724,361.12,357.109,0.0
55669.0,STARLINK-5459,PAYLOAD,2023-03-22 08:18:46,15.69906156,0.0002515,70.0005,58.3333,257.7119,102.3795,1.8603e-07,-1.9e-06,0.0,0 STARLINK-5459,1 55669U 23021AT  23081.34637449 -.00000190  00000-0  18603-6 0  9998,2 55669  70.0005  58.3333 0002515 257.7119 102.3795 15.69906156  5656,6737.302,91.725,360.862,357.473,0.0
55669.0,STARLINK-5459,PAYLOAD,2023-03-22 15:57:30,15.69928329,0.0003085,70.0009,57.4377,267.1823,92.9019,1.2816e-05,1.329e-05,0.0,0 STARLINK-5459,1 55669U 23021AT  23081.66494042  .00001329  00000-0  12816-4 0  9995,2 55669  70.0009  57.4377 0003085 267.1823  92.9019 15.69928329  5703,6737.239,91.724,361.182,357.026,0.0
55669.0,STARLINK-5459,PAYLOAD,2023-03-23 04:11:32,15.69924269,0.0003181,70.0004,56.0046,265.4155,94.6678,6.6606e-06,5.88e-06,0.0,0 STARLINK-5459,1 55669U 23021AT  23082.17467825  .00000588  00000-0  66606-5 0  9994,2 55669  70.0004  56.0046 0003181 265.4155  94.6678 15.69924269  5789,6737.251,91.724,361.259,356.973,0.0
55669.0,STARLINK-5459,PAYLOAD,2023-03-23 07:15:02,15.69927308,0.0003378,69.9998,55.6466,263.8139,96.2672,-6.0238e-06,-9.37e-06,0.0,0 STARLINK-5459,1 55669U 23021AT  23082.30211139 -.00000937  00000-0 -60238-5 0  9999,2 55669  69.9998  55.6466 0003378 263.8139  96.2672 15.69927308  6118,6737.242,91.724,361.383,356.831,0.0
55669.0,STARLINK-5459,PAYLOAD,2023-03-23 22:32:33,15.6993035,0.0003433,69.9998,53.8554,271.7702,88.3101,1.7098e-05,1.844e-05,0.0,0 STARLINK-5459,1 55669U 23021AT  23082.93927334  .00001844  00000-0  17098-4 0  9990,2 55669  69.9998  53.8554 0003433 271.7702  88.3101 15.69930350  6213,6737.233,91.724,361.411,356.785,0.0
55669.0,STARLINK-5459,PAYLOAD,2023-03-24 04:39:31,15.69963881,0.0003445,70.0,53.1411,257.1505,102.9306,4.531e-05,5.248e-05,0.0,0 STARLINK-5459,1 55669U 23021AT  23083.19411293  .00005248  00000-0  45310-4 0  9991,2 55669  70.0000  53.1411 0003445 257.1505 102.9306 15.69963881  5941,6737.137,91.722,361.323,356.681,0.0
55669.0,STARLINK-5459,PAYLOAD,2023-03-24 07:43:03,15.69939334,0.0002434,70.0041,52.7812,253.8295,106.2633,4.2949e-05,4.958e-05,0.0,0 STARLINK-5459,1 55669U 23021AT  23083.32156690  .00004958  00000-0  42949-4 0  9995,2 55669  70.0041  52.7812 0002434 253.8295 106.2633 15.69939334  5960,6737.208,91.723,360.712,357.433,0.0
55669.0,STARLINK-5459,PAYLOAD,2023-03-24 15:21:50,15.69909115,0.0003098,70.0019,51.8845,276.3322,83.752,-1.0517e-05,-1.476e-05,0.0,0 STARLINK-5459,1 55669U 23021AT  23083.64016557 -.00001476  00000-0 -10517-4 0  9997,2 55669  70.0019  51.8845 0003098 276.3322  83.7520 15.69909115  6014,6737.294,91.725,361.246,357.072,0.0
55669.0,STARLINK-5459,PAYLOAD,2023-03-25 00:32:23,15.69864368,0.0003573,70.001,50.8094,271.5332,88.5454,-9.3152e-05,-0.00011371,0.0,0 STARLINK-5459,1 55669U 23021AT  23084.02249385 -.00011371  00000-0 -93152-4 0  9998,2 55669  70.0010  50.8094 0003573 271.5332  88.5454 15.69864368  6071,6737.422,91.728,361.694,356.88,0.0
55669.0,STARLINK-5459,PAYLOAD,2023-03-25 08:11:07,15.69921263,0.0002988,70.0024,49.9153,268.1559,91.9295,2.0852e-05,2.295e-05,0.0,0 STARLINK-5459,1 55669U 23021AT  23084.34105721  .00002295  00000-0  20852-4 0  9998,2 55669  70.0024  49.9153 0002988 268.1559  91.9295 15.69921263  6128,6737.259,91.724,361.137,357.111,0.0
55669.0,STARLINK-5459,PAYLOAD,2023-03-25 21:56:51,15.69964831,0.0002786,70.0013,48.3023,272.5144,87.5733,4.5436e-05,5.263e-05,0.0,0 STARLINK-5459,1 55669U 23021AT  23084.91448293  .00005263  00000-0  45436-4 0  9998,2 55669  70.0013  48.3023 0002786 272.5144  87.5733 15.69964831  6520,6737.135,91.722,360.877,357.123,0.0
55669.0,STARLINK-5459,PAYLOAD,2023-03-26 04:03:52,15.69943405,0.0003272,70.0015,47.5859,263.4665,96.6158,1.0436e-05,1.043e-05,0.0,0 STARLINK-5459,1 55669U 23021AT  23085.16935716  .00001043  00000-0  10436-4 0  9991,2 55669  70.0015  47.5859 0003272 263.4665  96.6158 15.69943405  6254,6737.196,91.723,361.265,356.857,0.0
55669.0,STARLINK-5459,PAYLOAD,2023-03-26 07:07:24,15.69911461,0.0002864,70.0018,47.228,263.6142,96.4727,-4.6103e-05,-5.749e-05,0.0,0 STARLINK-5459,1 55669U 23021AT  23085.29680681 -.00005749  00000-0 -46103-4 0  9992,2 55669  70.0018  47.2280 0002864 263.6142  96.4727 15.69911461  6279,6737.287,91.725,361.082,357.223,0.0
55669.0,STARLINK-5459,PAYLOAD,2023-03-26 22:24:55,15.69916847,0.0003076,70.0017,45.435,257.154,102.9312,7.5417e-05,8.862e-05,0.0,0 STARLINK-5459,1 55669U 23021AT  23085.93397200  .00008862  00000-0  75417-4 0  9992,2 55669  70.0017  45.4350 0003076 257.1540 102.9312 15.69916847  6683,6737.272,91.725,361.209,357.065,0.0
55669.0,STARLINK-5459,PAYLOAD,2023-03-26 23:56:40,15.69903223,0.0003298,70.0001,45.2558,262.445,97.6371,7.4596e-05,8.758e-05,0.0,0 STARLINK-5459,1 55669U 23021AT  23085.99768919  .00008758  00000-0  74596-4 0  9998,2 55669  70.0001  45.2558 0003298 262.4450  97.6371 15.69903223  6385,6737.311,91.725,361.398,356.954,0.0
